OBJECT_NAME,OBJECT_ID,EPOCH,MEAN_MOTION,ECCENTRICITY,INCLINATION,RA_OF_ASC_NODE,ARG_OF_PERICENTER,MEAN_ANOMALY,EPHEMERIS_TYPE,CLASSIFICATION_TYPE,NORAD_CAT_ID,ELEMENT_SET_NO,REV_AT_EPOCH,BSTAR,MEAN_MOTION_DOT,MEAN_MOTION_DDOT
VICTUS HAZE PUMA,2026-142A,2026-07-17T06:50:10.926816,15.21130484,.002641,97.4460,95.5636,259.4735,100.3525,0,U,69646,999,424,.10157E-3,.2209E-4,0
HOKUSHIN-1,1998-067YH,2026-07-18T10:47:57.386400,15.51112993,.00061441,51.6322,145.0811,341.4323,18.6441,0,U,69648,999,450,.269919E-3,.15603E-3,0
STARLINK-37656,2026-143A,2026-07-18T13:48:22.298976,15.49206159,.000055,97.2851,243.4906,18.4108,341.7163,0,U,69649,999,540,.41965E-3,.22813E-3,0
STARLINK-37646,2026-143B,2026-07-17T09:41:10.843872,15.48770998,.0003494,97.2850,242.4838,139.4005,220.7507,0,U,69650,999,523,-.30305E-2,-.159329E-2,0
STARLINK-37749,2026-143C,2026-07-18T13:45:07.981056,15.49197876,.0000939,97.2847,243.6477,109.3625,250.7727,0,U,69651,999,541,.28661E-3,.15533E-3,0
STARLINK-37819,2026-143D,2026-07-17T02:22:30.042048,15.49219289,.00016833,97.2815,242.1313,91.4316,268.7128,0,U,69652,999,518,.68551182E-3,.3741E-3,0
STARLINK-37729,2026-143E,2026-07-18T20:00:01.999008,15.70019274,.0001935,97.2853,244.4393,84.2805,86.1102,0,U,69653,999,554,-.2385E-1,-.2502919E-1,0
STARLINK-37838,2026-143F,2026-07-18T16:25:12.553248,15.49073520,.0001099,97.2822,243.7996,128.8637,231.2712,0,U,69654,999,543,-.12171E-2,-.6547E-3,0
STARLINK-37884,2026-143G,2026-07-18T20:00:01.999008,15.39922570,.0002639,97.2837,243.8570,72.2354,149.5227,0,U,69655,999,554,-.11196E+0,-.3874903E-1,0
STARLINK-37876,2026-143H,2026-07-18T20:00:01.999008,15.36973612,.0001175,97.2844,243.9291,93.0887,316.2667,0,U,69656,999,544,-.64709E-3,-.23377E-3,0
STARLINK-37784,2026-143J,2026-07-18T01:38:58.176096,15.49225127,.00008728,97.2837,243.1099,101.0730,259.0619,0,U,69657,999,526,.64464637E-3,.35171E-3,0
STARLINK-37851,2026-143K,2026-07-17T01:43:35.226336,15.49205906,.00006228,97.2843,242.1702,94.0044,266.1279,0,U,69658,999,511,.37230415E-3,.20222E-3,0
STARLINK-37229,2026-143L,2026-07-18T20:00:01.999008,15.37826942,.0001086,97.2823,243.8941,6.0663,298.8902,0,U,69659,999,548,-.91603E-1,-.299773E-1,0
STARLINK-37556,2026-143M,2026-07-18T20:00:01.999008,15.37387505,.0002009,97.2841,243.8604,102.1423,154.5466,0,U,69660,999,548,-.31961E-1,-.1074166E-1,0
STARLINK-37867,2026-143N,2026-07-18T20:00:01.999008,15.33452997,.0001936,97.2845,243.9005,62.3836,277.8495,0,U,69661,999,544,-.5263E-3,-.17033E-3,0
STARLINK-37852,2026-143P,2026-07-18T20:21:09.950976,15.49060514,.0004134,97.2837,243.8869,345.0983,15.0145,0,U,69662,999,538,.43789E-3,.23696E-3,0
STARLINK-37554,2026-143Q,2026-07-18T20:00:01.999008,15.36979280,.0001676,97.2847,243.8864,98.9238,213.9148,0,U,69663,999,548,-.58903E-3,-.21297E-3,0
STARLINK-37830,2026-143R,2026-07-18T20:00:01.999008,15.37930391,.000203,97.2841,243.8725,58.7776,209.6308,0,U,69664,999,543,-.4117E-1,-.1395614E-1,0
STARLINK-37837,2026-143S,2026-07-18T01:46:04.893600,15.36980990,.00007074,97.2839,243.1034,83.4688,276.6638,0,U,69665,999,526,.28380515E-3,.10188E-3,0
STARLINK-37943,2026-143T,2026-07-18T20:10:24.686400,15.47677709,.0001187,97.2849,243.8968,47.4775,312.6576,0,U,69666,999,538,-.16125E-1,-.766439E-2,0
STARLINK-37941,2026-143U,2026-07-18T20:00:01.999008,15.42057449,.0001424,97.2858,243.9211,54.6732,314.8893,0,U,69667,999,544,-.74582E-1,-.2774586E-1,0
STARLINK-37930,2026-143V,2026-07-17T01:59:38.823936,15.49238300,.00011666,97.2839,242.1534,117.7877,242.3492,0,U,69668,999,511,.53609935E-3,.29225E-3,0
STARLINK-37945,2026-143W,2026-07-17T01:41:03.861312,15.49200166,.00008062,97.2808,242.1687,71.0791,289.0547,0,U,69669,999,511,.38917037E-3,.2114E-3,0
STARLINK-37948,2026-143X,2026-07-18T16:02:21.087168,15.49209184,.0000207,97.2858,243.6736,336.1292,23.9949,0,U,69670,999,535,.46703E-3,.25409E-3,0
STARLINK-37949,2026-143Y,2026-07-18T03:03:06.834816,15.49203170,.00004745,97.2832,243.1814,279.8491,80.2706,0,U,69671,999,527,.61059453E-3,.33274E-3,0
STARLINK-37946,2026-143Z,2026-07-18T16:40:09.908832,15.49211451,.0000094,97.2853,243.7889,264.4292,95.6948,0,U,69672,999,536,.45444E-3,.24722E-3,0
TJS-26A,2026-144A,2026-07-18T20:56:22.620192,1.00271768,.0004098,6.9434,323.2333,349.1491,45.9312,0,U,69674,999,26,0,-.355E-5,0
CZ-7A R/B,2026-144B,2026-07-17T17:43:15.653568,2.65384182,.70522592,19.4386,313.7982,198.9731,108.4435,0,U,69675,999,63,.14334455E-2,.13451E-1,.45800595E-4
STARLINK-38005,2026-145A,2026-07-18T13:02:53.018880,15.75283787,.00012073,97.2835,46.5416,114.8686,245.2705,0,U,69677,999,370,.14010137E-2,.215058E-2,0
STARLINK-38009,2026-145B,2026-07-18T13:00:21.006720,15.75266910,.00013427,97.2837,46.5448,112.3279,247.8129,0,U,69678,999,370,.13826686E-2,.212009E-2,0
