VICTUS HAZE PUMA        
1 69646U 26142A   26198.28484869  .00002209  00000+0  10157-3 0  9990
2 69646  97.4460  95.5636 0026410 259.4735 100.3525 15.21130484  4240
HOKUSHIN-1              
1 69648U 98067YH  26199.44996975  .00015603  00000+0  26992-3 0  9998
2 69648  51.6322 145.0811 0006144 341.4323  18.6441 15.51112993  4509
STARLINK-37656          
1 69649U 26143A   26199.57525809  .00022813  00000+0  41965-3 0  9991
2 69649  97.2851 243.4906 0000550  18.4108 341.7163 15.49206159  5404
STARLINK-37646          
1 69650U 26143B   26198.40359773 -.00159329  00000+0 -30305-2 0  9999
2 69650  97.2850 242.4838 0003494 139.4005 220.7507 15.48770998  5233
STARLINK-37749          
1 69651U 26143C   26199.57300904  .00015533  00000+0  28661-3 0  9990
2 69651  97.2847 243.6477 0000939 109.3625 250.7727 15.49197876  5413
STARLINK-37819          
1 69652U 26143D   26198.09895882  .00037410  00000+0  68551-3 0  9991
2 69652  97.2815 242.1313 0001683  91.4316 268.7128 15.49219289  5188
STARLINK-37729          
1 69653U 26143E   26199.83335647 -.02502919  00000+0 -23850-1 0  9999
2 69653  97.2853 244.4393 0001935  84.2805  86.1102 15.70019274  5547
STARLINK-37838          
1 69654U 26143F   26199.68417307 -.00065470  00000+0 -12171-2 0  9996
2 69654  97.2822 243.7996 0001099 128.8637 231.2712 15.49073520  5432
STARLINK-37884          
1 69655U 26143G   26199.83335647 -.03874903  00000+0 -11196+0 0  9995
2 69655  97.2837 243.8570 0002639  72.2354 149.5227 15.39922570  5548
STARLINK-37876          
1 69656U 26143H   26199.83335647 -.00023377  00000+0 -64709-3 0  9996
2 69656  97.2844 243.9291 0001175  93.0887 316.2667 15.36973612  5444
STARLINK-37784          
1 69657U 26143J   26199.06872889  .00035171  00000+0  64465-3 0  9998
2 69657  97.2837 243.1099 0000872 101.0730 259.0619 15.49225127  5261
STARLINK-37851          
1 69658U 26143K   26198.07193549  .00020222  00000+0  37230-3 0  9999
2 69658  97.2843 242.1702 0000622  94.0044 266.1279 15.49205906  5119
STARLINK-37229          
1 69659U 26143L   26199.83335647 -.02997730  00000+0 -91603-1 0  9995
2 69659  97.2823 243.8941 0001086   6.0663 298.8902 15.37826942  5487
STARLINK-37556          
1 69660U 26143M   26199.83335647 -.01074166  00000+0 -31961-1 0  9996
2 69660  97.2841 243.8604 0002009 102.1423 154.5466 15.37387505  5483
STARLINK-37867          
1 69661U 26143N   26199.83335647 -.00017033  00000+0 -52630-3 0  9994
2 69661  97.2845 243.9005 0001936  62.3836 277.8495 15.33452997  5448
STARLINK-37852          
1 69662U 26143P   26199.84803184  .00023696  00000+0  43789-3 0  9997
2 69662  97.2837 243.8869 0004134 345.0983  15.0145 15.49060514  5388
STARLINK-37554          
1 69663U 26143Q   26199.83335647 -.00021297  00000+0 -58903-3 0  9992
2 69663  97.2847 243.8864 0001676  98.9238 213.9148 15.36979280  5488
STARLINK-37830          
1 69664U 26143R   26199.83335647 -.01395614  00000+0 -41170-1 0  9997
2 69664  97.2841 243.8725 0002030  58.7776 209.6308 15.37930391  5431
STARLINK-37837          
1 69665U 26143S   26199.07366775  .00010188  00000+0  28381-3 0  9998
2 69665  97.2839 243.1034 0000707  83.4688 276.6638 15.36980990  5261
STARLINK-37943          
1 69666U 26143T   26199.84056350 -.00766439  00000+0 -16125-1 0  9999
2 69666  97.2849 243.8968 0001187  47.4775 312.6576 15.47677709  5384
STARLINK-37941          
1 69667U 26143U   26199.83335647 -.02774586  00000+0 -74582-1 0  9993
2 69667  97.2858 243.9211 0001424  54.6732 314.8893 15.42057449  5445
STARLINK-37930          
1 69668U 26143V   26198.08308824  .00029225  00000+0  53610-3 0  9997
2 69668  97.2839 242.1534 0001166 117.7877 242.3492 15.49238300  5116
STARLINK-37945          
1 69669U 26143W   26198.07018358  .00021140  00000+0  38917-3 0  9998
2 69669  97.2808 242.1687 0000806  71.0791 289.0547 15.49200166  5117
STARLINK-37948          
1 69670U 26143X   26199.66829962  .00025409  00000+0  46703-3 0  9991
2 69670  97.2858 243.6736 0000207 336.1292  23.9949 15.49209184  5357
STARLINK-37949          
1 69671U 26143Y   26199.12716244  .00033274  00000+0  61059-3 0  9991
2 69671  97.2832 243.1814 0000474 279.8491  80.2706 15.49203170  5279
STARLINK-37946          
1 69672U 26143Z   26199.69455913  .00024722  00000+0  45444-3 0  9995
2 69672  97.2853 243.7889 0000094 264.4292  95.6948 15.49211451  5367
TJS-26A                 
1 69674U 26144A   26199.87248403 -.00000355  00000+0  00000+0 0  9994
2 69674   6.9434 323.2333 0004098 349.1491  45.9312  1.00271768   265
CZ-7A R/B               
1 69675U 26144B   26198.73837562  .01345100  45801-4  14334-2 0  9990
2 69675  19.4386 313.7982 7052259 198.9731 108.4435  2.65384182   630
STARLINK-38005          
1 69677U 26145A   26199.54366920  .00215058  00000+0  14010-2 0  9993
2 69677  97.2835  46.5416 0001207 114.8686 245.2705 15.75283787  3709
STARLINK-38009          
1 69678U 26145B   26199.54190980  .00212009  00000+0  13827-2 0  9993
2 69678  97.2837  46.5448 0001342 112.3279 247.8129 15.75266910  3705
